STARLINK-36958          
1 68163U 26049X   26083.41668981 -.01957200  00000+0 -94832-2 0  9990
2 68163  97.2751 103.3793 0001352  84.7415   5.7717 15.85326584  2986
STARLINK-37002          
1 68164U 26049Y   26083.41668981 -.01936435  00000+0 -93989-2 0  9990
2 68164  97.2757 103.3775 0001496  88.3143 358.0994 15.85256265  2989
STARLINK-36971          
1 68165U 26049Z   26083.41668981 -.01954412  00000+0 -94196-2 0  9997
2 68165  97.2749 103.3811 0001463  89.5204   4.8975 15.85430173  2984
STARLINK-36273          
1 68166U 26049AA  26083.41668981 -.01979328  00000+0 -94694-2 0  9994
2 68166  97.2749 103.3843 0001504  90.7542  11.5993 15.85621125  2990
STARLINK-36969          
1 68167U 26050A   26083.41668981 -.00032623  00000+0 -16232-3 0  9997
2 68167  53.1598 208.0350 0000744  88.4779 258.1029 15.80879645  2807
STARLINK-36984          
1 68168U 26050B   26083.41668981 -.00070980  00000+0 -35864-3 0  9998
2 68168  53.1601 208.0263 0001224  76.7740 274.0775 15.80896049  2800
STARLINK-37077          
1 68169U 26050C   26083.41668981 -.00060547  00000+0 -30517-3 0  9997
2 68169  53.1600 208.0171 0001145 117.5579 237.5714 15.80886519  2802
STARLINK-37003          
1 68170U 26050D   26083.41668981 -.00056764  00000+0 -28585-3 0  9997
2 68170  53.1600 208.0084 0000599 122.0002 237.4083 15.80881135  2808
STARLINK-37034          
1 68171U 26050E   26083.41668981 -.00073163  00000+0 -36993-3 0  9992
2 68171  53.1600 207.9993 0001192  89.3219 274.3470 15.80893152  2803
STARLINK-37031          
1 68172U 26050F   26083.41668981 -.00043989  00000+0 -22032-3 0  9995
2 68172  53.1602 207.9905 0001030 123.6210 244.3244 15.80886846  2801
STARLINK-37076          
1 68173U 26050G   26083.41668981 -.00226428  00000+0 -11692-2 0  9996
2 68173  53.1600 207.9819 0001312 101.3505 270.8987 15.80958687  2808
STARLINK-37078          
1 68174U 26050H   26083.41668981 -.00045284  00000+0 -22691-3 0  9998
2 68174  53.1600 207.9732 0000991  93.3925 283.0858 15.80889717  2801
STARLINK-36886          
1 68175U 26050J   26083.41668981  .00022581  00000+0  11780-3 0  9999
2 68175  53.1602 207.9639 0001021  97.2093 283.5574 15.80843080  2807
STARLINK-36905          
1 68176U 26050K   26083.41668981 -.00048645  00000+0 -24402-3 0  9996
2 68176  53.1602 207.9558 0000758  58.1859 326.8008 15.80898730  2805
STARLINK-36668          
1 68177U 26050L   26083.41668981 -.00016494  00000+0 -80151-4 0  9998
2 68177  53.1602 207.9465 0000971  88.0462 301.2336 15.80882337  2809
STARLINK-36677          
1 68178U 26050M   26083.41668981 -.00012976  00000+0 -62405-4 0  9992
2 68178  53.1602 207.9371 0000647  61.8036 331.7610 15.80838862  2809
