[{"OBJECT_NAME":"STARLINK-36958","OBJECT_ID":"2026-049X","EPOCH":"2026-03-24T10:00:01.999584","MEAN_MOTION":15.85326584,"ECCENTRICITY":0.0001352,"INCLINATION":97.2751,"RA_OF_ASC_NODE":103.3793,"ARG_OF_PERICENTER":84.7415,"MEAN_ANOMALY":5.7717,"EPHEMERIS_TYPE":0,"CLASSIFICATION_TYPE":"U","NORAD_CAT_ID":68163,"ELEMENT_SET_NO":999,"REV_AT_EPOCH":298,"BSTAR":-0.0094832,"MEAN_MOTION_DOT":-0.019572,"MEAN_MOTION_DDOT":0},{"OBJECT_NAME":"STARLINK-37002","OBJECT_ID":"2026-049Y","EPOCH":"2026-03-24T10:00:01.999584","MEAN_MOTION":15.85256265,"ECCENTRICITY":0.0001496,"INCLINATION":97.2757,"RA_OF_ASC_NODE":103.3775,"ARG_OF_PERICENTER":88.3143,"MEAN_ANOMALY":358.0994,"EPHEMERIS_TYPE":0,"CLASSIFICATION_TYPE":"U","NORAD_CAT_ID":68164,"ELEMENT_SET_NO":999,"REV_AT_EPOCH":298,"BSTAR":-0.0093989,"MEAN_MOTION_DOT":-0.01936435,"MEAN_MOTION_DDOT":0},{"OBJECT_NAME":"STARLINK-36971","OBJECT_ID":"2026-049Z","EPOCH":"2026-03-24T10:00:01.999584","MEAN_MOTION":15.85430173,"ECCENTRICITY":0.0001463,"INCLINATION":97.2749,"RA_OF_ASC_NODE":103.3811,"ARG_OF_PERICENTER":89.5204,"MEAN_ANOMALY":4.8975,"EPHEMERIS_TYPE":0,"CLASSIFICATION_TYPE":"U","NORAD_CAT_ID":68165,"ELEMENT_SET_NO":999,"REV_AT_EPOCH":298,"BSTAR":-0.0094196,"MEAN_MOTION_DOT":-0.01954412,"MEAN_MOTION_DDOT":0},{"OBJECT_NAME":"STARLINK-36273","OBJECT_ID":"2026-049AA","EPOCH":"2026-03-24T10:00:01.999584","MEAN_MOTION":15.85621125,"ECCENTRICITY":0.0001504,"INCLINATION":97.2749,"RA_OF_ASC_NODE":103.3843,"ARG_OF_PERICENTER":90.7542,"MEAN_ANOMALY":11.5993,"EPHEMERIS_TYPE":0,"CLASSIFICATION_TYPE":"U","NORAD_CAT_ID":68166,"ELEMENT_SET_NO":999,"REV_AT_EPOCH":299,"BSTAR":-0.0094694,"MEAN_MOTION_DOT":-0.01979328,"MEAN_MOTION_DDOT":0},{"OBJECT_NAME":"STARLINK-36969","OBJECT_ID":"2026-050A","EPOCH":"2026-03-24T10:00:01.999584","MEAN_MOTION":15.80879645,"ECCENTRICITY":7.44e-5,"INCLINATION":53.1598,"RA_OF_ASC_NODE":208.035,"ARG_OF_PERICENTER":88.4779,"MEAN_ANOMALY":258.1029,"EPHEMERIS_TYPE":0,"CLASSIFICATION_TYPE":"U","NORAD_CAT_ID":68167,"ELEMENT_SET_NO":999,"REV_AT_EPOCH":280,"BSTAR":-0.00016232,"MEAN_MOTION_DOT":-0.00032623,"MEAN_MOTION_DDOT":0},{"OBJECT_NAME":"STARLINK-36984","OBJECT_ID":"2026-050B","EPOCH":"2026-03-24T10:00:01.999584","MEAN_MOTION":15.80896049,"ECCENTRICITY":0.0001224,"INCLINATION":53.1601,"RA_OF_ASC_NODE":208.0263,"ARG_OF_PERICENTER":76.774,"MEAN_ANOMALY":274.0775,"EPHEMERIS_TYPE":0,"CLASSIFICATION_TYPE":"U","NORAD_CAT_ID":68168,"ELEMENT_SET_NO":999,"REV_AT_EPOCH":280,"BSTAR":-0.00035864,"MEAN_MOTION_DOT":-0.0007098,"MEAN_MOTION_DDOT":0},{"OBJECT_NAME":"STARLINK-37077","OBJECT_ID":"2026-050C","EPOCH":"2026-03-24T10:00:01.999584","MEAN_MOTION":15.80886519,"ECCENTRICITY":0.0001145,"INCLINATION":53.16,"RA_OF_ASC_NODE":208.0171,"ARG_OF_PERICENTER":117.5579,"MEAN_ANOMALY":237.5714,"EPHEMERIS_TYPE":0,"CLASSIFICATION_TYPE":"U","NORAD_CAT_ID":68169,"ELEMENT_SET_NO":999,"REV_AT_EPOCH":280,"BSTAR":-0.00030517,"MEAN_MOTION_DOT":-0.00060547,"MEAN_MOTION_DDOT":0},{"OBJECT_NAME":"STARLINK-37003","OBJECT_ID":"2026-050D","EPOCH":"2026-03-24T10:00:01.999584","MEAN_MOTION":15.80881135,"ECCENTRICITY":5.99e-5,"INCLINATION":53.16,"RA_OF_ASC_NODE":208.0084,"ARG_OF_PERICENTER":122.0002,"MEAN_ANOMALY":237.4083,"EPHEMERIS_TYPE":0,"CLASSIFICATION_TYPE":"U","NORAD_CAT_ID":68170,"ELEMENT_SET_NO":999,"REV_AT_EPOCH":280,"BSTAR":-0.00028585,"MEAN_MOTION_DOT":-0.00056764,"MEAN_MOTION_DDOT":0},{"OBJECT_NAME":"STARLINK-37034","OBJECT_ID":"2026-050E","EPOCH":"2026-03-24T10:00:01.999584","MEAN_MOTION":15.80893152,"ECCENTRICITY":0.0001192,"INCLINATION":53.16,"RA_OF_ASC_NODE":207.9993,"ARG_OF_PERICENTER":89.3219,"MEAN_ANOMALY":274.347,"EPHEMERIS_TYPE":0,"CLASSIFICATION_TYPE":"U","NORAD_CAT_ID":68171,"ELEMENT_SET_NO":999,"REV_AT_EPOCH":280,"BSTAR":-0.00036993,"MEAN_MOTION_DOT":-0.00073163,"MEAN_MOTION_DDOT":0},{"OBJECT_NAME":"STARLINK-37031","OBJECT_ID":"2026-050F","EPOCH":"2026-03-24T10:00:01.999584","MEAN_MOTION":15.80886846,"ECCENTRICITY":0.000103,"INCLINATION":53.1602,"RA_OF_ASC_NODE":207.9905,"ARG_OF_PERICENTER":123.621,"MEAN_ANOMALY":244.3244,"EPHEMERIS_TYPE":0,"CLASSIFICATION_TYPE":"U","NORAD_CAT_ID":68172,"ELEMENT_SET_NO":999,"REV_AT_EPOCH":280,"BSTAR":-0.00022032,"MEAN_MOTION_DOT":-0.00043989,"MEAN_MOTION_DDOT":0},{"OBJECT_NAME":"STARLINK-37076","OBJECT_ID":"2026-050G","EPOCH":"2026-03-24T10:00:01.999584","MEAN_MOTION":15.80958687,"ECCENTRICITY":0.0001312,"INCLINATION":53.16,"RA_OF_ASC_NODE":207.9819,"ARG_OF_PERICENTER":101.3505,"MEAN_ANOMALY":270.8987,"EPHEMERIS_TYPE":0,"CLASSIFICATION_TYPE":"U","NORAD_CAT_ID":68173,"ELEMENT_SET_NO":999,"REV_AT_EPOCH":280,"BSTAR":-0.0011692,"MEAN_MOTION_DOT":-0.00226428,"MEAN_MOTION_DDOT":0},{"OBJECT_NAME":"STARLINK-37078","OBJECT_ID":"2026-050H","EPOCH":"2026-03-24T10:00:01.999584","MEAN_MOTION":15.80889717,"ECCENTRICITY":9.91e-5,"INCLINATION":53.16,"RA_OF_ASC_NODE":207.9732,"ARG_OF_PERICENTER":93.3925,"MEAN_ANOMALY":283.0858,"EPHEMERIS_TYPE":0,"CLASSIFICATION_TYPE":"U","NORAD_CAT_ID":68174,"ELEMENT_SET_NO":999,"REV_AT_EPOCH":280,"BSTAR":-0.00022691,"MEAN_MOTION_DOT":-0.00045284,"MEAN_MOTION_DDOT":0},{"OBJECT_NAME":"STARLINK-36886","OBJECT_ID":"2026-050J","EPOCH":"2026-03-24T10:00:01.999584","MEAN_MOTION":15.8084308,"ECCENTRICITY":0.0001021,"INCLINATION":53.1602,"RA_OF_ASC_NODE":207.9639,"ARG_OF_PERICENTER":97.2093,"MEAN_ANOMALY":283.5574,"EPHEMERIS_TYPE":0,"CLASSIFICATION_TYPE":"U","NORAD_CAT_ID":68175,"ELEMENT_SET_NO":999,"REV_AT_EPOCH":280,"BSTAR":0.0001178,"MEAN_MOTION_DOT":0.00022581,"MEAN_MOTION_DDOT":0},{"OBJECT_NAME":"STARLINK-36905","OBJECT_ID":"2026-050K","EPOCH":"2026-03-24T10:00:01.999584","MEAN_MOTION":15.8089873,"ECCENTRICITY":7.58e-5,"INCLINATION":53.1602,"RA_OF_ASC_NODE":207.9558,"ARG_OF_PERICENTER":58.1859,"MEAN_ANOMALY":326.8008,"EPHEMERIS_TYPE":0,"CLASSIFICATION_TYPE":"U","NORAD_CAT_ID":68176,"ELEMENT_SET_NO":999,"REV_AT_EPOCH":280,"BSTAR":-0.00024402,"MEAN_MOTION_DOT":-0.00048645,"MEAN_MOTION_DDOT":0},{"OBJECT_NAME":"STARLINK-36668","OBJECT_ID":"2026-050L","EPOCH":"2026-03-24T10:00:01.999584","MEAN_MOTION":15.80882337,"ECCENTRICITY":9.71e-5,"INCLINATION":53.1602,"RA_OF_ASC_NODE":207.9465,"ARG_OF_PERICENTER":88.0462,"MEAN_ANOMALY":301.2336,"EPHEMERIS_TYPE":0,"CLASSIFICATION_TYPE":"U","NORAD_CAT_ID":68177,"ELEMENT_SET_NO":999,"REV_AT_EPOCH":280,"BSTAR":-8.0151e-5,"MEAN_MOTION_DOT":-0.00016494,"MEAN_MOTION_DDOT":0},{"OBJECT_NAME":"STARLINK-36677","OBJECT_ID":"2026-050M","EPOCH":"2026-03-24T10:00:01.999584","MEAN_MOTION":15.80838862,"ECCENTRICITY":6.47e-5,"INCLINATION":53.1602,"RA_OF_ASC_NODE":207.9371,"ARG_OF_PERICENTER":61.8036,"MEAN_ANOMALY":331.761,"EPHEMERIS_TYPE":0,"CLASSIFICATION_TYPE":"U","NORAD_CAT_ID":68178,"ELEMENT_SET_NO":999,"REV_AT_EPOCH":280,"BSTAR":-6.2405e-5,"MEAN_MOTION_DOT":-0.00012976,"MEAN_MOTION_DDOT":0}]
